OBJECT_NAME,OBJECT_ID,EPOCH,MEAN_MOTION,ECCENTRICITY,INCLINATION,RA_OF_ASC_NODE,ARG_OF_PERICENTER,MEAN_ANOMALY,EPHEMERIS_TYPE,CLASSIFICATION_TYPE,NORAD_CAT_ID,ELEMENT_SET_NO,REV_AT_EPOCH,BSTAR,MEAN_MOTION_DOT,MEAN_MOTION_DDOT
SIRION PATHFINDER-2,2018-099B,2026-06-08T09:28:01.882272,15.14472586,.0007859,97.4257,208.6615,340.5410,19.5521,0,U,43759,999,41129,.23517E-3,.4264E-4,0
CORVUS BC4,2018-099K,2026-06-08T09:20:20.680800,15.12425701,.0009163,97.4070,202.6273,41.5767,318.6159,0,U,43767,999,41107,.25943E-3,.4448E-4,0
M2 PATHFINDER,2020-037E,2026-06-08T11:14:06.698112,15.04639792,.0011656,97.8161,350.6018,175.5768,184.5563,0,U,45727,999,32418,.19733E-3,.2713E-4,0
NETSAT-4,2020-068U,2026-06-08T12:05:21.242112,15.43576234,.0004986,97.8612,167.0483,13.6781,346.4600,0,U,46504,999,31443,.38914E-3,.17413E-3,0
NETSAT-3,2020-068V,2026-06-08T12:04:44.046912,15.42378838,.0005436,97.8660,165.2755,31.7442,328.4131,0,U,46505,999,31434,.41102E-3,.17674E-3,0
NETSAT-1,2020-068W,2026-06-08T11:06:26.485920,15.34435181,.0006022,97.8750,159.6653,57.0067,303.1753,0,U,46506,999,31396,.3419E-3,.11325E-3,0
NETSAT-2,2020-068X,2026-06-07T23:20:55.091904,15.45603022,.00046978,97.8623,166.3369,51.1192,309.0474,0,U,46507,999,31431,.51519351E-3,.2475E-3,0
GREENCUBE (IO-117),2022-080E,2026-06-01T11:09:37.753056,6.42583280,.00088692,70.1435,303.7143,293.3663,66.6064,0,U,53109,999,9105,0,-.3E-7,0
SITRO-AIS 5 (KATYS),2023-091L,2026-06-08T11:58:15.290112,15.29255947,.0012707,97.5062,223.3167,130.3258,229.9094,0,U,57176,999,16301,.42404E-3,.11994E-3,0
SITRO-AIS 6 (CHIRKIN),2023-091AC,2026-06-08T10:59:13.056000,15.25767792,.0012949,97.5070,222.4406,133.4115,226.8203,0,U,57192,999,16295,.38627E-3,.9816E-4,0
SITRO-AIS 8 (ANOKHIN),2023-091AD,2026-06-08T11:10:25.782816,15.31893530,.0011827,97.5058,224.8366,126.5850,233.6481,0,U,57193,999,16311,.38836E-3,.1191E-3,0
SITRO-AIS 7 (FARTUSHNIY),2023-091AE,2026-06-08T11:01:11.705664,15.25458603,.0012785,97.5068,222.2713,134.3312,225.8976,0,U,57194,999,16294,.37011E-3,.9314E-4,0
SITRO-AIS 10 (BURDAEV),2023-091AK,2026-06-08T11:14:39.518880,15.38277115,.0007926,97.5081,229.8045,105.8301,254.3818,0,U,57199,999,16342,.48584E-3,.1828E-3,0
SITRO-AIS 9 (SHCHUKIN),2023-091AM,2026-06-08T11:48:43.634016,15.37802034,.0008163,97.5079,229.5655,105.8994,254.3151,0,U,57201,999,16341,.51563E-3,.19112E-3,0
SITRO-AIS 12 (SMIRENNIY),2023-091AQ,2026-06-08T11:37:35.043168,15.38092330,.0007757,97.5093,230.0192,100.7848,259.4270,0,U,57204,999,16343,.51768E-3,.19369E-3,0
SITRO-AIS 11 (SHEFFER),2023-091AU,2026-06-08T12:00:20.418912,15.38509667,.0007655,97.5090,230.2765,100.8646,259.3460,0,U,57208,999,16345,.52875E-3,.20056E-3,0
SITRO-AIS 25,2024-039R,2026-06-08T12:46:24.712608,14.93467523,.0144583,95.3911,229.1451,359.2001,0.8970,0,U,59066,999,12343,.27952E-3,.3576E-4,0
SITRO-AIS 26,2024-039S,2026-06-08T12:46:41.539872,14.93264410,.0144936,95.3912,229.0448,359.7736,0.3399,0,U,59067,999,12342,.27636E-3,.3519E-4,0
SITRO-AIS 27,2024-039T,2026-06-08T12:07:19.755264,14.93681984,.0144016,95.3914,229.2937,358.4849,1.5920,0,U,59068,999,12344,.22975E-3,.2946E-4,0
SITRO-AIS 28,2024-039U,2026-06-08T11:35:07.916928,14.93717589,.0143878,95.3915,229.3251,358.4588,1.6174,0,U,59071,999,12344,.26801E-3,.3444E-4,0
GRBBETA,2024-128C,2026-06-08T12:36:55.882656,15.06582201,.0041832,61.9897,246.6540,132.8394,227.6227,0,U,60237,999,10496,.28949E-3,.4174E-4,0
OOV-CUBE (TUBSAT-30),2024-128F,2026-06-08T11:19:27.408864,15.02736717,.0045737,61.9950,255.9620,131.8030,228.6982,0,U,60240,999,10480,.19712E-3,.2491E-4,0
ROBUSTA-3A (MEDITERRANEE),2024-128J,2026-06-08T11:15:48.227616,15.11571222,.0042427,61.9858,239.0710,126.3258,234.1766,0,U,60243,999,10510,.38081E-3,.6411E-4,0
LASARSAT,2024-247Q,2026-06-07T20:47:16.155744,15.45786656,.00083327,44.9755,314.5710,280.1166,79.8784,0,U,62391,999,8187,.69568469E-3,.34284E-3,0
CROCUBE,2024-247T,2026-06-08T09:23:47.690016,15.47628423,.0008194,44.9727,309.0951,286.2754,73.7235,0,U,62394,999,8198,.63097E-3,.33115E-3,0
FORESAIL-1 PRIME,2025-276DS,2026-06-08T04:01:00.773184,15.18619338,.0003714,97.4199,232.6039,122.1307,238.0288,0,U,66778,999,2903,.21751E-3,.4435E-4,0
KNACKSAT-2,1998-067XZ,2026-06-07T19:16:13.947744,15.59121118,.0010362,51.6303,341.6515,174.2130,185.8984,0,U,67683,999,1881,.61257743E-3,.48726E-3,0
