SIRION PATHFINDER-2     
1 43759U 18099B   26159.39446623  .00004264  00000+0  23517-3 0  9991
2 43759  97.4257 208.6615 0007859 340.5410  19.5521 15.14472586411291
CORVUS BC4              
1 43767U 18099K   26159.38912825  .00004448  00000+0  25943-3 0  9990
2 43767  97.4070 202.6273 0009163  41.5767 318.6159 15.12425701411071
M2 PATHFINDER           
1 45727U 20037E   26159.46813308  .00002713  00000+0  19733-3 0  9991
2 45727  97.8161 350.6018 0011656 175.5768 184.5563 15.04639792324186
NETSAT-4                
1 46504U 20068U   26159.50371808  .00017413  00000+0  38914-3 0  9993
2 46504  97.8612 167.0483 0004986  13.6781 346.4600 15.43576234314434
NETSAT-3                
1 46505U 20068V   26159.50328758  .00017674  00000+0  41102-3 0  9992
2 46505  97.8660 165.2755 0005436  31.7442 328.4131 15.42378838314344
NETSAT-1                
1 46506U 20068W   26159.46280655  .00011325  00000+0  34190-3 0  9997
2 46506  97.8750 159.6653 0006022  57.0067 303.1753 15.34435181313968
NETSAT-2                
1 46507U 20068X   26158.97285986  .00024750  00000+0  51519-3 0  9995
2 46507  97.8623 166.3369 0004697  51.1192 309.0474 15.45603022314315
GREENCUBE (IO-117)      
1 53109U 22080E   26152.46502029 -.00000003  00000+0  00000+0 0  9996
2 53109  70.1435 303.7143 0008869 293.3663  66.6064  6.42583280 91055
SITRO-AIS 5 (KATYS)     
1 57176U 23091L   26159.49878808  .00011994  00000+0  42404-3 0  9996
2 57176  97.5062 223.3167 0012707 130.3258 229.9094 15.29255947163015
SITRO-AIS 6 (CHIRKIN)   
1 57192U 23091AC  26159.45779000  .00009816  00000+0  38627-3 0  9996
2 57192  97.5070 222.4406 0012949 133.4115 226.8203 15.25767792162954
SITRO-AIS 8 (ANOKHIN)   
1 57193U 23091AD  26159.46557619  .00011910  00000+0  38836-3 0  9998
2 57193  97.5058 224.8366 0011827 126.5850 233.6481 15.31893530163115
SITRO-AIS 7 (FARTUSHNIY)
1 57194U 23091AE  26159.45916326  .00009314  00000+0  37011-3 0  9991
2 57194  97.5068 222.2713 0012785 134.3312 225.8976 15.25458603162942
SITRO-AIS 10 (BURDAEV)  
1 57199U 23091AK  26159.46851295  .00018280  00000+0  48584-3 0  9999
2 57199  97.5081 229.8045 0007926 105.8301 254.3818 15.38277115163422
SITRO-AIS 9 (SHCHUKIN)  
1 57201U 23091AM  26159.49217169  .00019112  00000+0  51563-3 0  9998
2 57201  97.5079 229.5655 0008163 105.8994 254.3151 15.37802034163411
SITRO-AIS 12 (SMIRENNIY)
1 57204U 23091AQ  26159.48443337  .00019369  00000+0  51768-3 0  9999
2 57204  97.5093 230.0192 0007757 100.7848 259.4270 15.38092330163434
SITRO-AIS 11 (SHEFFER)  
1 57208U 23091AU  26159.50023633  .00020056  00000+0  52875-3 0  9994
2 57208  97.5090 230.2765 0007655 100.8646 259.3460 15.38509667163455
SITRO-AIS 25            
1 59066U 24039R   26159.53223047  .00003576  00000+0  27952-3 0  9991
2 59066  95.3911 229.1451 0144583 359.2001   0.8970 14.93467523123436
SITRO-AIS 26            
1 59067U 24039S   26159.53242523  .00003519  00000+0  27636-3 0  9998
2 59067  95.3912 229.0448 0144936 359.7736   0.3399 14.93264410123424
SITRO-AIS 27            
1 59068U 24039T   26159.50508976  .00002946  00000+0  22975-3 0  9997
2 59068  95.3914 229.2937 0144016 358.4849   1.5920 14.93681984123446
SITRO-AIS 28            
1 59071U 24039U   26159.48273052  .00003444  00000+0  26801-3 0  9998
2 59071  95.3915 229.3251 0143878 358.4588   1.6174 14.93717589123449
GRBBETA                 
1 60237U 24128C   26159.52564679  .00004174  00000+0  28949-3 0  9992
2 60237  61.9897 246.6540 0041832 132.8394 227.6227 15.06582201104963
OOV-CUBE (TUBSAT-30)    
1 60240U 24128F   26159.47184501  .00002491  00000+0  19712-3 0  9990
2 60240  61.9950 255.9620 0045737 131.8030 228.6982 15.02736717104804
ROBUSTA-3A (MEDITERRAN*)
1 60243U 24128J   26159.46930819  .00006411  00000+0  38081-3 0  9999
2 60243  61.9858 239.0710 0042427 126.3258 234.1766 15.11571222105105
LASARSAT                
1 62391U 24247Q   26158.86615921  .00034284  00000+0  69568-3 0  9997
2 62391  44.9755 314.5710 0008332 280.1166  79.8784 15.45786656 81878
CROCUBE                 
1 62394U 24247T   26159.39152419  .00033115  00000+0  63097-3 0  9990
2 62394  44.9727 309.0951 0008194 286.2754  73.7235 15.47628423 81987
FORESAIL-1 PRIME        
1 66778U 25276DS  26159.16737006  .00004435  00000+0  21751-3 0  9993
2 66778  97.4199 232.6039 0003714 122.1307 238.0288 15.18619338 29031
KNACKSAT-2              
1 67683U 98067XZ  26158.80293921  .00048726  00000+0  61258-3 0  9997
2 67683  51.6303 341.6515 0010362 174.2130 185.8984 15.59121118 18810
